*******************************************************************************
Revised: Sep 12, 1996           Earth Barycenter                              3
 
 Dynamical point:
 ---------------
 The common point about which the Earth and Moon revolve (center of mass). This
 is approximately 4671 km from the center of the Earth, or about 3/4 of the way 
 to the surface. See 399 for Earth center, or 301 for Moon center ephemeris.

*******************************************************************************
 
 
*******************************************************************************
Ephemeris / WWW_USER Mon Jun 24 14:39:32 2013 Pasadena, USA      / Horizons    
*******************************************************************************
Target body name: Earth-Moon Barycenter (3)       {source: DE405}
Center body name: Solar System Barycenter (0)     {source: DE405}
Center-site name: BODY CENTER
*******************************************************************************
Start time      : A.D. 2019-Apr-30 00:00:00.0000 CT 
Stop  time      : A.D. 2019-May-03 00:00:00.0000 CT 
Step-size       : 60 minutes
*******************************************************************************
Center geodetic : 0.00000000,0.00000000,0.0000000 {E-lon(deg),Lat(deg),Alt(km)}
Center cylindric: 0.00000000,0.00000000,0.0000000 {E-lon(deg),Dxy(km),Dz(km)}
Center radii    : (undefined)                                                  
Output units    : KM-S                                                         
Output format   : 05
Reference frame : ICRF/J2000.0                                                 
Output type     : GEOMETRIC cartesian states
Coordinate systm: Ecliptic and Mean Equinox of Reference Epoch                 
*******************************************************************************
JDCT 
   VX    VY    VZ
*******************************************************************************
$$SOE
2458603.500000000 = A.D. 2019-Apr-30 00:00:00.0000 (CT)
   1.829499674253148E+01 -2.322224934299387E+01  1.380808672067154E-03
2458603.541666667 = A.D. 2019-Apr-30 01:00:00.0000 (CT)
   1.831132093773735E+01 -2.320896560435388E+01  1.380169671373762E-03
2458603.583333333 = A.D. 2019-Apr-30 02:00:00.0000 (CT)
   1.832763539431771E+01 -2.319567061966459E+01  1.379530192077013E-03
2458603.625000000 = A.D. 2019-Apr-30 03:00:00.0000 (CT)
   1.834394010486326E+01 -2.318236439619388E+01  1.378890234519000E-03
2458603.666666667 = A.D. 2019-Apr-30 04:00:00.0000 (CT)
   1.836023506197024E+01 -2.316904694121403E+01  1.378249799046111E-03
2458603.708333333 = A.D. 2019-Apr-30 05:00:00.0000 (CT)
   1.837652025824050E+01 -2.315571826200173E+01  1.377608886001634E-03
2458603.750000000 = A.D. 2019-Apr-30 06:00:00.0000 (CT)
   1.839279568628141E+01 -2.314237836583803E+01  1.376967495724013E-03
2458603.791666667 = A.D. 2019-Apr-30 07:00:00.0000 (CT)
   1.840906133870596E+01 -2.312902726000838E+01  1.376325628557291E-03
2458603.833333333 = A.D. 2019-Apr-30 08:00:00.0000 (CT)
   1.842531720813266E+01 -2.311566495180259E+01  1.375683284841206E-03
2458603.875000000 = A.D. 2019-Apr-30 09:00:00.0000 (CT)
   1.844156328718565E+01 -2.310229144851485E+01  1.375040464913377E-03
2458603.916666667 = A.D. 2019-Apr-30 10:00:00.0000 (CT)
   1.845779956849459E+01 -2.308890675744374E+01  1.374397169112772E-03
2458603.958333333 = A.D. 2019-Apr-30 11:00:00.0000 (CT)
   1.847402604469477E+01 -2.307551088589216E+01  1.373753397776557E-03
2458604.000000000 = A.D. 2019-Apr-30 12:00:00.0000 (CT)
   1.849024270842702E+01 -2.306210384116740E+01  1.373109151238359E-03
2458604.041666667 = A.D. 2019-Apr-30 13:00:00.0000 (CT)
   1.850644955233777E+01 -2.304868563058109E+01  1.372464429836307E-03
2458604.083333333 = A.D. 2019-Apr-30 14:00:00.0000 (CT)
   1.852264656907903E+01 -2.303525626144923E+01  1.371819233900418E-03
2458604.125000000 = A.D. 2019-Apr-30 15:00:00.0000 (CT)
   1.853883375130838E+01 -2.302181574109215E+01  1.371173563769238E-03
2458604.166666667 = A.D. 2019-Apr-30 16:00:00.0000 (CT)
   1.855501109168902E+01 -2.300836407683450E+01  1.370527419769609E-03
2458604.208333333 = A.D. 2019-Apr-30 17:00:00.0000 (CT)
   1.857117858288969E+01 -2.299490127600532E+01  1.369880802234289E-03
2458604.250000000 = A.D. 2019-Apr-30 18:00:00.0000 (CT)
   1.858733621758476E+01 -2.298142734593793E+01  1.369233711493468E-03
2458604.291666667 = A.D. 2019-Apr-30 19:00:00.0000 (CT)
   1.860348398845418E+01 -2.296794229397000E+01  1.368586147877047E-03
2458604.333333333 = A.D. 2019-Apr-30 20:00:00.0000 (CT)
   1.861962188818346E+01 -2.295444612744354E+01  1.367938111711712E-03
2458604.375000000 = A.D. 2019-Apr-30 21:00:00.0000 (CT)
   1.863574990946377E+01 -2.294093885370483E+01  1.367289603324939E-03
2458604.416666667 = A.D. 2019-Apr-30 22:00:00.0000 (CT)
   1.865186804499180E+01 -2.292742048010452E+01  1.366640623040448E-03
2458604.458333333 = A.D. 2019-Apr-30 23:00:00.0000 (CT)
   1.866797628746989E+01 -2.291389101399754E+01  1.365991171189811E-03
2458604.500000000 = A.D. 2019-May-01 00:00:00.0000 (CT)
   1.868407462960597E+01 -2.290035046274311E+01  1.365341248092580E-03
2458604.541666667 = A.D. 2019-May-01 01:00:00.0000 (CT)
   1.870016306411355E+01 -2.288679883370478E+01  1.364690854067686E-03
2458604.583333333 = A.D. 2019-May-01 02:00:00.0000 (CT)
   1.871624158371177E+01 -2.287323613425040E+01  1.364039989446810E-03
2458604.625000000 = A.D. 2019-May-01 03:00:00.0000 (CT)
   1.873231018112535E+01 -2.285966237175208E+01  1.363388654547648E-03
2458604.666666667 = A.D. 2019-May-01 04:00:00.0000 (CT)
   1.874836884908461E+01 -2.284607755358623E+01  1.362736849687275E-03
2458604.708333333 = A.D. 2019-May-01 05:00:00.0000 (CT)
   1.876441758032552E+01 -2.283248168713356E+01  1.362084575191168E-03
2458604.750000000 = A.D. 2019-May-01 06:00:00.0000 (CT)
   1.878045636758961E+01 -2.281887477977903E+01  1.361431831370595E-03
2458604.791666667 = A.D. 2019-May-01 07:00:00.0000 (CT)
   1.879648520362404E+01 -2.280525683891189E+01  1.360778618549680E-03
2458604.833333333 = A.D. 2019-May-01 08:00:00.0000 (CT)
   1.881250408118160E+01 -2.279162787192567E+01  1.360124937042687E-03
2458604.875000000 = A.D. 2019-May-01 09:00:00.0000 (CT)
   1.882851299302066E+01 -2.277798788621813E+01  1.359470787166190E-03
2458604.916666667 = A.D. 2019-May-01 10:00:00.0000 (CT)
   1.884451193190522E+01 -2.276433688919132E+01  1.358816169232442E-03
2458604.958333333 = A.D. 2019-May-01 11:00:00.0000 (CT)
   1.886050089060491E+01 -2.275067488825154E+01  1.358161083560246E-03
2458605.000000000 = A.D. 2019-May-01 12:00:00.0000 (CT)
   1.887647986189496E+01 -2.273700189080932E+01  1.357505530458645E-03
2458605.041666667 = A.D. 2019-May-01 13:00:00.0000 (CT)
   1.889244883855622E+01 -2.272331790427947E+01  1.356849510241495E-03
2458605.083333333 = A.D. 2019-May-01 14:00:00.0000 (CT)
   1.890840781337518E+01 -2.270962293608102E+01  1.356193023219955E-03
2458605.125000000 = A.D. 2019-May-01 15:00:00.0000 (CT)
   1.892435677914393E+01 -2.269591699363724E+01  1.355536069705971E-03
2458605.166666667 = A.D. 2019-May-01 16:00:00.0000 (CT)
   1.894029572866020E+01 -2.268220008437562E+01  1.354878650007267E-03
2458605.208333333 = A.D. 2019-May-01 17:00:00.0000 (CT)
   1.895622465472734E+01 -2.266847221572791E+01  1.354220764434750E-03
2458605.250000000 = A.D. 2019-May-01 18:00:00.0000 (CT)
   1.897214355015433E+01 -2.265473339513006E+01  1.353562413297598E-03
2458605.291666667 = A.D. 2019-May-01 19:00:00.0000 (CT)
   1.898805240775579E+01 -2.264098363002224E+01  1.352903596901104E-03
2458605.333333333 = A.D. 2019-May-01 20:00:00.0000 (CT)
   1.900395122035195E+01 -2.262722292784884E+01  1.352244315550252E-03
2458605.375000000 = A.D. 2019-May-01 21:00:00.0000 (CT)
   1.901983998076869E+01 -2.261345129605846E+01  1.351584569553523E-03
2458605.416666667 = A.D. 2019-May-01 22:00:00.0000 (CT)
   1.903571868183751E+01 -2.259966874210390E+01  1.350924359215827E-03
2458605.458333333 = A.D. 2019-May-01 23:00:00.0000 (CT)
   1.905158731639557E+01 -2.258587527344217E+01  1.350263684842199E-03
2458605.500000000 = A.D. 2019-May-02 00:00:00.0000 (CT)
   1.906744587728565E+01 -2.257207089753447E+01  1.349602546733887E-03
2458605.541666667 = A.D. 2019-May-02 01:00:00.0000 (CT)
   1.908329435735617E+01 -2.255825562184619E+01  1.348940945194546E-03
2458605.583333333 = A.D. 2019-May-02 02:00:00.0000 (CT)
   1.909913274946119E+01 -2.254442945384691E+01  1.348278880526105E-03
2458605.625000000 = A.D. 2019-May-02 03:00:00.0000 (CT)
   1.911496104646042E+01 -2.253059240101039E+01  1.347616353028657E-03
2458605.666666667 = A.D. 2019-May-02 04:00:00.0000 (CT)
   1.913077924121920E+01 -2.251674447081457E+01  1.346953363007525E-03
2458605.708333333 = A.D. 2019-May-02 05:00:00.0000 (CT)
   1.914658732660855E+01 -2.250288567074157E+01  1.346289910758483E-03
2458605.750000000 = A.D. 2019-May-02 06:00:00.0000 (CT)
   1.916238529550509E+01 -2.248901600827766E+01  1.345625996583179E-03
2458605.791666667 = A.D. 2019-May-02 07:00:00.0000 (CT)
   1.917817314079113E+01 -2.247513549091330E+01  1.344961620777406E-03
2458605.833333333 = A.D. 2019-May-02 08:00:00.0000 (CT)
   1.919395085535461E+01 -2.246124412614307E+01  1.344296783640658E-03
2458605.875000000 = A.D. 2019-May-02 09:00:00.0000 (CT)
   1.920971843208912E+01 -2.244734192146576E+01  1.343631485470810E-03
2458605.916666667 = A.D. 2019-May-02 10:00:00.0000 (CT)
   1.922547586389392E+01 -2.243342888438427E+01  1.342965726567044E-03
2458605.958333333 = A.D. 2019-May-02 11:00:00.0000 (CT)
   1.924122314367391E+01 -2.241950502240566E+01  1.342299507221709E-03
2458606.000000000 = A.D. 2019-May-02 12:00:00.0000 (CT)
   1.925696026433966E+01 -2.240557034304112E+01  1.341632827731932E-03
2458606.041666667 = A.D. 2019-May-02 13:00:00.0000 (CT)
   1.927268721880738E+01 -2.239162485380600E+01  1.340965688392896E-03
